KUIPER-00044            
1 64505U 25134F   25265.33078067  .00006419  00000+0  86900-3 0  9994
2 64505  51.8971 271.0791 0014385  75.6686 284.5873 14.79946680 14959
KUIPER-00046            
1 64506U 25134G   25265.25695297  .00006242  00000+0  84735-3 0  9994
2 64506  51.8971 267.7697 0012742  87.3325 272.9096 14.79883214 14997
KUIPER-00047            
1 64507U 25134H   25265.36091313  .00028232  00000+0  80388-3 0  9999
2 64507  51.8621 253.1189 0012292  89.9758 270.2636 15.35820370 15206
KUIPER-00048            
1 64508U 25134J   25265.36570497  .00050762  00000+0  13286-2 0  9990
2 64508  51.8758 251.8079 0006351  73.0915 287.0768 15.38207022 15229
KUIPER-00049            
1 64509U 25134K   25265.58335648 -.01539253  00000+0 -11360+0 0  9990
2 64509  51.8829 254.2022 0007914  57.5848 217.9162 15.06342641  2624
KUIPER-00050            
1 64510U 25134L   25265.58335648 -.01241939  00000+0 -91984-1 0  9995
2 64510  51.8825 255.2946 0006753  92.7187   5.4708 15.05536710  4297
KUIPER-00051            
1 64511U 25134M   25265.58335648 -.01840145  00000+0 -10614+0 0  9999
2 64511  51.8871 253.2902 0006313  62.1542 231.5539 15.15254572  4262
KUIPER-00052            
1 64512U 25134N   25265.24521250  .00135917  00000+0  17695-2 0  9999
2 64512  51.8728 245.1127 0007991  87.9940 272.1970 15.57760806 15308
