<?xml version="1.0" encoding="UTF-8"?>
<ndm xmlns:xsi="http://www.w3.org/2001/XMLSchema-instance" xsi:noNamespaceSchemaLocation="https://sanaregistry.org/r/ndmxml_unqualified/ndmxml-2.0.0-master-2.0.xsd">
<omm id="CCSDS_OMM_VERS" version="2.0">
<header><CREATION_DATE/><ORIGINATOR/></header><body><segment><metadata><OBJECT_NAME>KUIPER-00044</OBJECT_NAME><OBJECT_ID>2025-134F</OBJECT_ID><CENTER_NAME>EARTH</CENTER_NAME><REF_FRAME>TEME</REF_FRAME><TIME_SYSTEM>UTC</TIME_SYSTEM><MEAN_ELEMENT_THEORY>SGP4</MEAN_ELEMENT_THEORY></metadata><data><meanElements><EPOCH>2025-09-22T07:56:19.449888</EPOCH><MEAN_MOTION>14.79946680</MEAN_MOTION><ECCENTRICITY>.0014385</ECCENTRICITY><INCLINATION>51.8971</INCLINATION><RA_OF_ASC_NODE>271.0791</RA_OF_ASC_NODE><ARG_OF_PERICENTER>75.6686</ARG_OF_PERICENTER><MEAN_ANOMALY>284.5873</MEAN_ANOMALY></meanElements><tleParameters><EPHEMERIS_TYPE>0</EPHEMERIS_TYPE><CLASSIFICATION_TYPE>U</CLASSIFICATION_TYPE><NORAD_CAT_ID>64505</NORAD_CAT_ID><ELEMENT_SET_NO>999</ELEMENT_SET_NO><REV_AT_EPOCH>1495</REV_AT_EPOCH><BSTAR>.86900393E-3</BSTAR><MEAN_MOTION_DOT>.6419E-4</MEAN_MOTION_DOT><MEAN_MOTION_DDOT>0</MEAN_MOTION_DDOT></tleParameters></data></segment></body></omm>
<omm id="CCSDS_OMM_VERS" version="2.0">
<header><CREATION_DATE/><ORIGINATOR/></header><body><segment><metadata><OBJECT_NAME>KUIPER-00046</OBJECT_NAME><OBJECT_ID>2025-134G</OBJECT_ID><CENTER_NAME>EARTH</CENTER_NAME><REF_FRAME>TEME</REF_FRAME><TIME_SYSTEM>UTC</TIME_SYSTEM><MEAN_ELEMENT_THEORY>SGP4</MEAN_ELEMENT_THEORY></metadata><data><meanElements><EPOCH>2025-09-22T06:10:00.736608</EPOCH><MEAN_MOTION>14.79883214</MEAN_MOTION><ECCENTRICITY>.00127423</ECCENTRICITY><INCLINATION>51.8971</INCLINATION><RA_OF_ASC_NODE>267.7697</RA_OF_ASC_NODE><ARG_OF_PERICENTER>87.3325</ARG_OF_PERICENTER><MEAN_ANOMALY>272.9096</MEAN_ANOMALY></meanElements><tleParameters><EPHEMERIS_TYPE>0</EPHEMERIS_TYPE><CLASSIFICATION_TYPE>U</CLASSIFICATION_TYPE><NORAD_CAT_ID>64506</NORAD_CAT_ID><ELEMENT_SET_NO>999</ELEMENT_SET_NO><REV_AT_EPOCH>1499</REV_AT_EPOCH><BSTAR>.84734803E-3</BSTAR><MEAN_MOTION_DOT>.6242E-4</MEAN_MOTION_DOT><MEAN_MOTION_DDOT>0</MEAN_MOTION_DDOT></tleParameters></data></segment></body></omm>
<omm id="CCSDS_OMM_VERS" version="2.0">
<header><CREATION_DATE/><ORIGINATOR/></header><body><segment><metadata><OBJECT_NAME>KUIPER-00047</OBJECT_NAME><OBJECT_ID>2025-134H</OBJECT_ID><CENTER_NAME>EARTH</CENTER_NAME><REF_FRAME>TEME</REF_FRAME><TIME_SYSTEM>UTC</TIME_SYSTEM><MEAN_ELEMENT_THEORY>SGP4</MEAN_ELEMENT_THEORY></metadata><data><meanElements><EPOCH>2025-09-22T08:39:42.894432</EPOCH><MEAN_MOTION>15.35820370</MEAN_MOTION><ECCENTRICITY>.00122923</ECCENTRICITY><INCLINATION>51.8621</INCLINATION><RA_OF_ASC_NODE>253.1189</RA_OF_ASC_NODE><ARG_OF_PERICENTER>89.9758</ARG_OF_PERICENTER><MEAN_ANOMALY>270.2636</MEAN_ANOMALY></meanElements><tleParameters><EPHEMERIS_TYPE>0</EPHEMERIS_TYPE><CLASSIFICATION_TYPE>U</CLASSIFICATION_TYPE><NORAD_CAT_ID>64507</NORAD_CAT_ID><ELEMENT_SET_NO>999</ELEMENT_SET_NO><REV_AT_EPOCH>1520</REV_AT_EPOCH><BSTAR>.80387507E-3</BSTAR><MEAN_MOTION_DOT>.28232E-3</MEAN_MOTION_DOT><MEAN_MOTION_DDOT>0</MEAN_MOTION_DDOT></tleParameters></data></segment></body></omm>
<omm id="CCSDS_OMM_VERS" version="2.0">
<header><CREATION_DATE/><ORIGINATOR/></header><body><segment><metadata><OBJECT_NAME>KUIPER-00048</OBJECT_NAME><OBJECT_ID>2025-134J</OBJECT_ID><CENTER_NAME>EARTH</CENTER_NAME><REF_FRAME>TEME</REF_FRAME><TIME_SYSTEM>UTC</TIME_SYSTEM><MEAN_ELEMENT_THEORY>SGP4</MEAN_ELEMENT_THEORY></metadata><data><meanElements><EPOCH>2025-09-22T08:46:36.909408</EPOCH><MEAN_MOTION>15.38207022</MEAN_MOTION><ECCENTRICITY>.00063517</ECCENTRICITY><INCLINATION>51.8758</INCLINATION><RA_OF_ASC_NODE>251.8079</RA_OF_ASC_NODE><ARG_OF_PERICENTER>73.0915</ARG_OF_PERICENTER><MEAN_ANOMALY>287.0768</MEAN_ANOMALY></meanElements><tleParameters><EPHEMERIS_TYPE>0</EPHEMERIS_TYPE><CLASSIFICATION_TYPE>U</CLASSIFICATION_TYPE><NORAD_CAT_ID>64508</NORAD_CAT_ID><ELEMENT_SET_NO>999</ELEMENT_SET_NO><REV_AT_EPOCH>1522</REV_AT_EPOCH><BSTAR>.13285779E-2</BSTAR><MEAN_MOTION_DOT>.50762E-3</MEAN_MOTION_DOT><MEAN_MOTION_DDOT>0</MEAN_MOTION_DDOT></tleParameters></data></segment></body></omm>
<omm id="CCSDS_OMM_VERS" version="2.0">
<header><CREATION_DATE/><ORIGINATOR/></header><body><segment><metadata><OBJECT_NAME>KUIPER-00049</OBJECT_NAME><OBJECT_ID>2025-134K</OBJECT_ID><CENTER_NAME>EARTH</CENTER_NAME><REF_FRAME>TEME</REF_FRAME><TIME_SYSTEM>UTC</TIME_SYSTEM><MEAN_ELEMENT_THEORY>SGP4</MEAN_ELEMENT_THEORY></metadata><data><meanElements><EPOCH>2025-09-22T14:00:01.999872</EPOCH><MEAN_MOTION>15.06342641</MEAN_MOTION><ECCENTRICITY>.00079146</ECCENTRICITY><INCLINATION>51.8829</INCLINATION><RA_OF_ASC_NODE>254.2022</RA_OF_ASC_NODE><ARG_OF_PERICENTER>57.5848</ARG_OF_PERICENTER><MEAN_ANOMALY>217.9162</MEAN_ANOMALY></meanElements><tleParameters><EPHEMERIS_TYPE>0</EPHEMERIS_TYPE><CLASSIFICATION_TYPE>U</CLASSIFICATION_TYPE><NORAD_CAT_ID>64509</NORAD_CAT_ID><ELEMENT_SET_NO>999</ELEMENT_SET_NO><REV_AT_EPOCH>262</REV_AT_EPOCH><BSTAR>-.11359508E+0</BSTAR><MEAN_MOTION_DOT>-.1539253E-1</MEAN_MOTION_DOT><MEAN_MOTION_DDOT>0</MEAN_MOTION_DDOT></tleParameters></data></segment></body></omm>
<omm id="CCSDS_OMM_VERS" version="2.0">
<header><CREATION_DATE/><ORIGINATOR/></header><body><segment><metadata><OBJECT_NAME>KUIPER-00050</OBJECT_NAME><OBJECT_ID>2025-134L</OBJECT_ID><CENTER_NAME>EARTH</CENTER_NAME><REF_FRAME>TEME</REF_FRAME><TIME_SYSTEM>UTC</TIME_SYSTEM><MEAN_ELEMENT_THEORY>SGP4</MEAN_ELEMENT_THEORY></metadata><data><meanElements><EPOCH>2025-09-22T14:00:01.999872</EPOCH><MEAN_MOTION>15.05536710</MEAN_MOTION><ECCENTRICITY>.00067539</ECCENTRICITY><INCLINATION>51.8825</INCLINATION><RA_OF_ASC_NODE>255.2946</RA_OF_ASC_NODE><ARG_OF_PERICENTER>92.7187</ARG_OF_PERICENTER><MEAN_ANOMALY>5.4708</MEAN_ANOMALY></meanElements><tleParameters><EPHEMERIS_TYPE>0</EPHEMERIS_TYPE><CLASSIFICATION_TYPE>U</CLASSIFICATION_TYPE><NORAD_CAT_ID>64510</NORAD_CAT_ID><ELEMENT_SET_NO>999</ELEMENT_SET_NO><REV_AT_EPOCH>429</REV_AT_EPOCH><BSTAR>-.91984016E-1</BSTAR><MEAN_MOTION_DOT>-.1241939E-1</MEAN_MOTION_DOT><MEAN_MOTION_DDOT>0</MEAN_MOTION_DDOT></tleParameters></data></segment></body></omm>
<omm id="CCSDS_OMM_VERS" version="2.0">
<header><CREATION_DATE/><ORIGINATOR/></header><body><segment><metadata><OBJECT_NAME>KUIPER-00051</OBJECT_NAME><OBJECT_ID>2025-134M</OBJECT_ID><CENTER_NAME>EARTH</CENTER_NAME><REF_FRAME>TEME</REF_FRAME><TIME_SYSTEM>UTC</TIME_SYSTEM><MEAN_ELEMENT_THEORY>SGP4</MEAN_ELEMENT_THEORY></metadata><data><meanElements><EPOCH>2025-09-22T14:00:01.999872</EPOCH><MEAN_MOTION>15.15254572</MEAN_MOTION><ECCENTRICITY>.00063137</ECCENTRICITY><INCLINATION>51.8871</INCLINATION><RA_OF_ASC_NODE>253.2902</RA_OF_ASC_NODE><ARG_OF_PERICENTER>62.1542</ARG_OF_PERICENTER><MEAN_ANOMALY>231.5539</MEAN_ANOMALY></meanElements><tleParameters><EPHEMERIS_TYPE>0</EPHEMERIS_TYPE><CLASSIFICATION_TYPE>U</CLASSIFICATION_TYPE><NORAD_CAT_ID>64511</NORAD_CAT_ID><ELEMENT_SET_NO>999</ELEMENT_SET_NO><REV_AT_EPOCH>426</REV_AT_EPOCH><BSTAR>-.10613509E+0</BSTAR><MEAN_MOTION_DOT>-.1840145E-1</MEAN_MOTION_DOT><MEAN_MOTION_DDOT>0</MEAN_MOTION_DDOT></tleParameters></data></segment></body></omm>
<omm id="CCSDS_OMM_VERS" version="2.0">
<header><CREATION_DATE/><ORIGINATOR/></header><body><segment><metadata><OBJECT_NAME>KUIPER-00052</OBJECT_NAME><OBJECT_ID>2025-134N</OBJECT_ID><CENTER_NAME>EARTH</CENTER_NAME><REF_FRAME>TEME</REF_FRAME><TIME_SYSTEM>UTC</TIME_SYSTEM><MEAN_ELEMENT_THEORY>SGP4</MEAN_ELEMENT_THEORY></metadata><data><meanElements><EPOCH>2025-09-22T05:53:06.360000</EPOCH><MEAN_MOTION>15.57760806</MEAN_MOTION><ECCENTRICITY>.00079915</ECCENTRICITY><INCLINATION>51.8728</INCLINATION><RA_OF_ASC_NODE>245.1127</RA_OF_ASC_NODE><ARG_OF_PERICENTER>87.9940</ARG_OF_PERICENTER><MEAN_ANOMALY>272.1970</MEAN_ANOMALY></meanElements><tleParameters><EPHEMERIS_TYPE>0</EPHEMERIS_TYPE><CLASSIFICATION_TYPE>U</CLASSIFICATION_TYPE><NORAD_CAT_ID>64512</NORAD_CAT_ID><ELEMENT_SET_NO>999</ELEMENT_SET_NO><REV_AT_EPOCH>1530</REV_AT_EPOCH><BSTAR>.17695332E-2</BSTAR><MEAN_MOTION_DOT>.135917E-2</MEAN_MOTION_DOT><MEAN_MOTION_DDOT>0</MEAN_MOTION_DDOT></tleParameters></data></segment></body></omm>

</ndm>
